H1 CPF 01  gfz 2021 04 05 12  5952 tandemx   
H2 1003001  6202 36605    2021 04 05 12 59 42 2021 04 10 00 00 42   120 1 1  0 0 0
H9
10 0 59311  23022.000000  0    -743854.928    962619.657   6769260.416
10 0 59311  23142.000000  0     171400.726    878839.069   6819090.464
10 0 59311  23262.000000  0    1081926.678    763747.750   6749102.964
10 0 59311  23382.000000  0    1971308.024    619578.733   6560519.946
10 0 59311  23502.000000  0    2823538.270    449355.400   6256634.272
10 0 59311  23622.000000  0    3623308.202    256830.449   5842756.708
10 0 59311  23742.000000  0    4356283.802     46406.969   5326128.242
10 0 59311  23862.000000  0    5009367.729   -176956.874   4715799.310
10 0 59311  23982.000000  0    5570940.328   -407857.938   4022476.865
10 0 59311  24102.000000  0    6031075.927   -640570.546   3258340.984
10 0 59311  24222.000000  0    6381729.239   -869178.929   2436832.065
10 0 59311  24342.000000  0    6616885.422  -1087716.311   1572411.586
10 0 59311  24462.000000  0    6732669.911  -1290307.630    680303.344
10 0 59311  24582.000000  0    6727418.501  -1471312.894   -223780.978
10 0 59311  24702.000000  0    6601701.474  -1625466.885  -1123928.651
10 0 59311  24822.000000  0    6358301.693  -1748010.753  -2004314.517
10 0 59311  24942.000000  0    6002148.648  -1834813.229  -2849487.324
10 0 59311  25062.000000  0    5540209.642  -1882477.963  -3644645.692
10 0 59311  25182.000000  0    4981342.929  -1888434.433  -4375898.599
10 0 59311  25302.000000  0    4336117.118  -1851010.442  -5030506.191
10 0 59311  25422.000000  0    3616600.421  -1769485.555  -5597096.612
10 0 59311  25542.000000  0    2836125.579  -1644123.965  -6065854.199
10 0 59311  25662.000000  0    2009038.213  -1476186.054  -6428678.218
10 0 59311  25782.000000  0    1150431.509  -1267919.005  -6679312.865
10 0 59311  25902.000000  0     275871.740  -1022527.560  -6813444.112
10 0 59311  26022.000000  0    -598879.438   -744125.194  -6828765.736
10 0 59311  26142.000000  0   -1458142.332   -437666.365  -6725014.384
10 0 59311  26262.000000  0   -2286594.089   -108860.264  -6503973.624
10 0 59311  26382.000000  0   -3069535.504    235932.374  -6169445.507
10 0 59311  26502.000000  0   -3793146.439    589817.881  -5727192.777
10 0 59311  26622.000000  0   -4444729.359    945502.646  -5184850.263
10 0 59311  26742.000000  0   -5012934.699   1295437.778  -4551804.749
10 0 59311  26862.000000  0   -5487966.126   1631975.139  -3839044.681
10 0 59311  26982.000000  0   -5861758.646   1947530.236  -3058978.242
10 0 59311  27102.000000  0   -6128126.877   2234747.822  -2225224.280
10 0 59311  27222.000000  0   -6282879.501   2486667.730  -1352377.818
10 0 59311  27342.000000  0   -6323896.144   2696886.808   -455753.655
10 0 59311  27462.000000  0   -6251163.896   2859712.121    448887.444
10 0 59311  27582.000000  0   -6066770.424   2970301.434   1345623.802
10 0 59311  27702.000000  0   -5774854.328   3024787.802   2218661.916
10 0 59311  27822.000000  0   -5381513.805   3020383.862   3052623.467
10 0 59311  27942.000000  0   -4894677.178   2955464.028   3832824.012
10 0 59311  28062.000000  0   -4323936.715   2829621.279   4545537.488
10 0 59311  28182.000000  0   -3680351.967   2643698.513   5178239.305
10 0 59311  28302.000000  0   -2976228.440   2399794.336   5719825.792
10 0 59311  28422.000000  0   -2224874.810   2101242.974   6160806.855
10 0 59311  28542.000000  0   -1440344.792   1752568.181   6493467.197
10 0 59311  28662.000000  0    -637169.626   1359412.951   6711994.346
10 0 59311  28782.000000  0     169911.774    928446.343   6812573.281
10 0 59311  28902.000000  0     966222.673    467249.494   6793448.839
10 0 59311  29022.000000  0    1737414.323    -15817.417   6654954.162
10 0 59311  29142.000000  0    2469723.355   -511765.899   6399505.857
10 0 59311  29262.000000  0    3150217.424  -1011145.808   6031565.420
10 0 59311  29382.000000  0    3767026.130  -1504224.174   5557566.575
10 0 59311  29502.000000  0    4309552.162  -1981174.733   4985808.001
10 0 59311  29622.000000  0    4768658.166  -2432273.514   4326313.872
10 0 59311  29742.000000  0    5136828.394  -2848097.958   3590663.978
10 0 59311  29862.000000  0    5408300.354  -3219725.115   2791792.196
10 0 59311  29982.000000  0    5579160.979  -3538923.153   1943757.435
10 0 59311  30102.000000  0    5647406.255  -3798332.951   1061493.466
10 0 59311  30222.000000  0    5612963.200  -3991634.805    160539.485
10 0 59311  30342.000000  0    5477672.614  -4113694.934   -743241.151
10 0 59311  30462.000000  0    5245233.044  -4160689.134  -1633949.814
10 0 59311  30582.000000  0    4921107.069  -4130198.821  -2495940.822
10 0 59311  30702.000000  0    4512392.527  -4021278.490  -3314102.549
10 0 59311  30822.000000  0    4027663.154  -3834492.990  -4074125.967
10 0 59311  30942.000000  0    3476782.449  -3571923.871  -4762754.430
10 0 59311  31062.000000  0    2870696.706  -3237145.472  -5368010.872
10 0 59311  31182.000000  0    2221212.209  -2835171.966  -5879397.617
10 0 59311  31302.000000  0    1540763.175  -2372378.686  -6288067.637
10 0 59311  31422.000000  0     842173.390  -1856397.823  -6586968.385
10 0 59311  31542.000000  0     138415.414  -1295989.230  -6770952.912
10 0 59311  31662.000000  0    -557626.533   -700891.561  -6836858.191
10 0 59311  31782.000000  0   -1233386.527    -81655.700  -6783552.730
10 0 59311  31902.000000  0   -1876838.577    550537.883  -6611953.547
10 0 59311  32022.000000  0   -2476705.581   1184075.662  -6325011.611
10 0 59311  32142.000000  0   -3022652.697   1807118.937  -5927666.752
10 0 59311  32262.000000  0   -3505463.943   2407820.113  -5426772.454
10 0 59311  32382.000000  0   -3917200.330   2974545.664  -4830989.836
10 0 59311  32502.000000  0   -4251335.718   3496101.155  -4150648.588
10 0 59311  32622.000000  0   -4502865.651   3961953.553  -3397577.340
10 0 59311  32742.000000  0   -4668388.206   4362447.197  -2584906.775
10 0 59311  32862.000000  0   -4746155.356   4689007.764  -1726845.407
10 0 59311  32982.000000  0   -4736092.174   4934329.551   -838432.854
10 0 59311  33102.000000  0   -4639783.507   5092541.651     64726.927
10 0 59311  33222.000000  0   -4460424.808   5159346.977    966746.412
10 0 59311  33342.000000  0   -4202742.242   5132130.774   1851742.401
10 0 59311  33462.000000  0   -3872879.577   5010034.267   2704126.402
10 0 59311  33582.000000  0   -3478256.221   4793992.159   3508887.440
10 0 59311  33702.000000  0   -3027401.326   4486734.188   4251862.028
10 0 59311  33822.000000  0   -2529768.656   4092750.992   4919987.265
10 0 59311  33942.000000  0   -1995535.557   3618224.159   5501531.665
10 0 59311  34062.000000  0   -1435391.732   3070922.741   5986299.149
10 0 59311  34182.000000  0    -860322.519   2460069.301   6365802.985
10 0 59311  34302.000000  0    -281392.514   1796178.685   6633407.101
10 0 59311  34422.000000  0     290466.577   1090874.244   6784436.581
10 0 59311  34542.000000  0     844662.234    356682.160   6816254.185
10 0 59311  34662.000000  0    1371136.257   -393190.447   6728303.056
10 0 59311  34782.000000  0    1860546.497  -1145092.425   6522116.851
10 0 59311  34902.000000  0    2304432.518  -1885176.478   6201294.701
10 0 59311  35022.000000  0    2695363.067  -2599654.095   5771443.464
10 0 59311  35142.000000  0    3027063.058  -3275053.988   5240084.993
10 0 59311  35262.000000  0    3294516.613  -3898478.940   4616530.225
10 0 59311  35382.000000  0    3494045.816  -4457856.645   3911721.684
10 0 59311  35502.000000  0    3623362.772  -4942179.945   3138044.310
10 0 59311  35622.000000  0    3681592.956  -5341729.779   2309108.416
10 0 59311  35742.000000  0    3669269.821  -5648276.457   1439507.899
10 0 59311  35862.000000  0    3588300.042  -5855253.489    544558.042
10 0 59311  35982.000000  0    3441900.467  -5957898.679   -359980.586
10 0 59311  36102.000000  0    3234509.424  -5953362.023  -1258188.238
10 0 59311  36222.000000  0    2971670.884  -5840773.016  -2134275.955
10 0 59311  36342.000000  0    2659898.084  -5621268.701  -2972869.847
10 0 59311  36462.000000  0    2306519.133  -5297981.076  -3759286.916
10 0 59311  36582.000000  0    1919507.867  -4875983.951  -4479794.317
10 0 59311  36702.000000  0    1507305.529  -4362202.159  -5121845.736
10 0 59311  36822.000000  0    1078639.421  -3765287.369  -5674293.077
10 0 59311  36942.000000  0     642340.798  -3095463.262  -6127570.903
10 0 59311  37062.000000  0     207165.620  -2364343.854  -6473850.864
10 0 59311  37182.000000  0    -218377.589  -1584728.633  -6707165.555
10 0 59311  37302.000000  0    -626189.533   -770378.362  -6823501.257
10 0 59311  37422.000000  0   -1008729.428     64225.087  -6820859.535
10 0 59311  37542.000000  0   -1359150.795    904130.642  -6699286.712
10 0 59311  37662.000000  0   -1671421.110   1734178.767  -6460872.968
10 0 59311  37782.000000  0   -1940423.240   2539268.063  -6109720.169
10 0 59311  37902.000000  0   -2162039.010   3304624.765  -5651880.397
10 0 59311  38022.000000  0   -2333212.563   4016071.811  -5095261.889
10 0 59311  38142.000000  0   -2451993.031   4660292.815  -4449504.456
10 0 59311  38262.000000  0   -2517555.377   5225086.357  -3725822.565
10 0 59311  38382.000000  0   -2530197.712   5699603.322  -2936818.583
10 0 59311  38502.000000  0   -2491315.354   6074564.079  -2096270.818
10 0 59311  38622.000000  0   -2403352.420   6342451.339  -1218895.558
10 0 59311  38742.000000  0   -2269730.964   6497669.343   -320087.823
10 0 59311  38862.000000  0   -2094760.068   6536669.306    584351.250
10 0 59311  38982.000000  0   -1883525.851   6458036.843   1478501.648
10 0 59311  39102.000000  0   -1641763.432   6262531.583   2346616.288
10 0 59311  39222.000000  0   -1375716.148   5953082.432   3173406.599
10 0 59311  39342.000000  0   -1091986.472   5534740.386   3944317.847
10 0 59311  39462.000000  0    -797382.472   5014590.463   4645790.312
99
